OBJECT_NAME,OBJECT_ID,EPOCH,MEAN_MOTION,ECCENTRICITY,INCLINATION,RA_OF_ASC_NODE,ARG_OF_PERICENTER,MEAN_ANOMALY,EPHEMERIS_TYPE,CLASSIFICATION_TYPE,NORAD_CAT_ID,ELEMENT_SET_NO,REV_AT_EPOCH,BSTAR,MEAN_MOTION_DOT,MEAN_MOTION_DDOT
STARLINK-4370,2022-084AU,2026-07-04T02:40:25.217472,15.05656679,.0001913,97.2822,244.3518,138.2624,221.8750,0,U,53231,999,21690,.77191994E-4,.1058E-4,0
STARLINK-4371,2022-084AV,2026-07-03T21:11:29.826240,15.05662783,.00027713,97.2829,242.9904,131.5087,228.6379,0,U,53232,999,21679,-.73724533E-4,-.112E-4,0
STARLINK-4372,2022-084AW,2026-07-04T03:22:20.216064,15.05652412,.00022168,97.2828,243.2436,112.9279,247.2183,0,U,53233,999,21683,-.3174649E-5,-.102E-5,0
STARLINK-4368,2022-084AX,2026-07-04T06:00:02.999808,15.51942202,.0000978,97.5995,247.5604,80.4064,120.3446,0,U,53234,999,582,.10275352E-2,.6198E-3,0
STARLINK-4056,2022-086A,2026-07-04T00:30:32.666688,15.08845306,.00014101,53.1636,36.6835,92.1149,268.0004,0,U,53242,999,21887,-.15260234E-3,-.2716E-4,0
STARLINK-4047,2022-086B,2026-07-04T06:00:02.999808,15.12455655,.0001093,53.1596,40.3090,99.6740,242.3095,0,U,53243,999,564,.53623639E-3,.9145E-4,0
STARLINK-4125,2022-086C,2026-07-04T06:00:02.999808,15.17078971,.00011647,53.1599,40.5724,115.3587,149.0465,0,U,53244,999,579,.54499658E-1,.1191004E-1,0
STARLINK-4131,2022-086E,2026-07-04T06:00:02.999808,15.15859211,.00011627,53.1600,40.5281,83.9485,183.6632,0,U,53246,999,569,.29910083E-1,.615742E-2,0
STARLINK-4061,2022-086F,2026-07-03T23:16:23.618784,15.08830439,.00012983,53.1611,37.1101,85.5499,274.5641,0,U,53247,999,21886,.57181084E-4,.622E-5,0
STARLINK-4135,2022-086G,2026-07-04T00:35:51.720288,15.08834239,.00012324,53.1609,36.7833,93.8969,266.2164,0,U,53248,999,21887,.57283683E-4,.624E-5,0
STARLINK-4128,2022-086H,2026-07-03T20:01:36.376320,15.29369227,.0001426,53.1610,31.2003,84.9396,275.1767,0,U,53249,999,21863,.54064712E-4,.1205E-4,0
STARLINK-4059,2022-086J,2026-07-04T06:00:02.999808,15.16671326,.00019157,53.1592,30.4820,107.8036,98.9563,0,U,53250,999,580,.54821699E-1,.1183496E-1,0
STARLINK-4129,2022-086K,2026-07-04T06:00:02.999808,15.29282504,.00010438,53.1609,29.4636,95.6358,336.5523,0,U,53251,999,482,.13935692E-2,.39982E-3,0
STARLINK-4132,2022-086L,2026-07-04T06:00:02.999808,15.29365072,.00012546,53.1608,29.4697,107.4714,275.4424,0,U,53252,999,550,-.38364596E-3,-.11412E-3,0
STARLINK-4133,2022-086M,2026-07-04T06:00:02.999808,15.26808518,.00004941,53.1613,29.6076,106.9490,270.9616,0,U,53253,999,579,.29146016E-1,.833958E-2,0
STARLINK-4134,2022-086N,2026-07-03T22:59:51.152352,15.08826913,.00004886,53.1610,31.9862,117.1653,242.9388,0,U,53254,999,21863,-.65309079E-4,-.1326E-4,0
STARLINK-4142,2022-086P,2026-07-03T21:01:53.193504,15.08834875,.00014079,53.1608,32.3455,89.4614,270.6539,0,U,53255,999,21860,.13829411E-3,.1913E-4,0
STARLINK-4147,2022-086Q,2026-07-03T21:07:09.574752,15.08851184,.00013289,53.1610,32.3305,87.9937,272.1206,0,U,53256,999,21860,.13390997E-3,.1844E-4,0
STARLINK-4144,2022-086R,2026-07-04T06:18:18.615744,15.08827359,.00013525,53.1613,30.6102,91.8648,268.2498,0,U,53257,999,21866,.27735567E-4,.153E-5,0
STARLINK-4127,2022-086S,2026-07-03T20:56:35.512800,15.08836062,.00014733,53.1617,32.3619,94.2414,265.8746,0,U,53258,999,21860,.57199622E-4,.622E-5,0
STARLINK-4140,2022-086T,2026-07-03T18:17:33.154656,15.08834404,.00012293,53.1596,32.4989,87.5073,272.6059,0,U,53259,999,21859,.867086E-4,.1092E-4,0
STARLINK-4062,2022-086V,2026-07-04T06:00:02.999808,15.16178980,.00015006,53.1600,30.4993,65.0346,12.3945,0,U,53261,999,579,.53407877E-1,.1132785E-1,0
STARLINK-4085,2022-086W,2026-07-04T06:00:02.999808,15.17854532,.0001023,53.1603,30.4838,56.6358,348.8818,0,U,53262,999,569,.29454901E-2,.6056E-3,0
STARLINK-4130,2022-086X,2026-07-04T06:00:02.999808,15.29361283,.00010101,53.1607,29.2180,76.6552,321.2201,0,U,53263,999,489,-.34576982E-3,-.10321E-3,0
STARLINK-3950,2022-086Y,2026-07-04T02:53:25.228896,15.11083165,.0001617,53.1608,31.2226,141.4233,218.6875,0,U,53264,999,21864,.17426504E-1,.307804E-2,0
STARLINK-4097,2022-086Z,2026-07-04T06:00:02.999808,15.15627405,.00016361,53.1592,30.4980,78.3438,60.0635,0,U,53265,999,555,.14365733E-2,.27424E-3,0
STARLINK-4058,2022-086AA,2026-07-04T06:00:02.999808,15.17261600,.00018648,53.1592,30.4597,81.5191,56.5902,0,U,53266,999,580,.28214978E-2,.56988E-3,0
STARLINK-4060,2022-086AB,2026-07-04T06:00:02.999808,15.16479045,.00017609,53.1592,30.4677,108.3337,85.8748,0,U,53267,999,570,.52630639E-1,.1125167E-1,0
STARLINK-4109,2022-086AC,2026-07-04T06:00:02.999808,15.25951897,.0001438,53.1610,29.3737,89.0359,290.7027,0,U,53268,999,580,.18406653E-2,.4785E-3,0
STARLINK-4122,2022-086AG,2026-07-04T06:00:02.999808,15.30972460,.00013764,53.1600,19.2514,84.6563,30.0180,0,U,53272,999,580,.23268914E-1,.759834E-2,0
STARLINK-4051,2022-086AH,2026-07-04T06:00:02.999808,15.27995325,.00014121,53.1598,19.4356,95.8852,25.0244,0,U,53273,999,489,.23608545E-1,.699486E-2,0
STARLINK-4050,2022-086AJ,2026-07-04T06:00:02.999808,15.30554776,.00015896,53.1595,19.3457,100.1869,6.4697,0,U,53274,999,564,.44877239E-1,.1467083E-1,0
STARLINK-4179,2022-086AK,2026-07-04T06:00:02.999808,15.23269227,.00008038,53.1595,19.8503,96.7791,190.2290,0,U,53275,999,579,.32320528E-1,.83198E-2,0
STARLINK-4174,2022-086AL,2026-07-04T06:00:02.999808,15.27478504,.00014645,53.1612,19.2338,84.8374,120.5796,0,U,53276,999,579,.30406143E-2,.8343E-3,0
STARLINK-4178,2022-086AM,2026-07-04T05:33:45.531072,15.20135571,.00004757,53.1636,19.7086,95.0978,265.0073,0,U,53277,999,21880,.67713496E-2,.151045E-2,0
STARLINK-4180,2022-086AN,2026-07-04T06:00:02.999808,15.24844062,.00011986,53.1607,20.0762,99.5661,91.4156,0,U,53278,999,482,.55085658E-1,.1519972E-1,0
STARLINK-4169,2022-086AQ,2026-07-04T06:00:02.999808,15.17191741,.00011138,53.1612,335.0584,86.7717,11.5876,0,U,53280,999,564,.51004195E-2,.103733E-2,0
STARLINK-4164,2022-086AS,2026-07-04T06:00:02.999808,15.32048288,.0000897,53.1609,19.2884,82.5790,193.7841,0,U,53282,999,569,.36304389E-1,.1242702E-1,0
STARLINK-4175,2022-086AT,2026-07-04T06:00:02.999808,15.28638147,.00011786,53.1608,19.3930,104.2997,178.8869,0,U,53283,999,579,.30009588E-1,.913749E-2,0
STARLINK-4173,2022-086AV,2026-07-04T06:00:02.999808,15.27050191,.00008645,53.1590,19.2979,86.4347,305.1115,0,U,53285,999,550,.31291116E-2,.84771E-3,0
STARLINK-4165,2022-086AW,2026-07-04T06:00:02.999808,15.22430031,.00011563,53.1586,19.9411,73.2293,308.8630,0,U,53286,999,559,.46999542E-1,.1199504E-1,0
STARLINK-4107,2022-086AX,2026-07-04T06:00:02.999808,15.29840370,.00014015,53.1589,19.3657,91.2036,305.3586,0,U,53287,999,484,.45445726E-1,.1452103E-1,0
STARLINK-4162,2022-086AY,2026-07-04T06:00:02.999808,15.26568086,.00011302,53.1592,19.3878,83.0521,242.3133,0,U,53288,999,580,.24091627E-2,.64058E-3,0
STARLINK-4176,2022-086AZ,2026-07-04T06:00:02.999808,15.25960989,.00010721,53.1629,15.0825,86.2772,142.5921,0,U,53289,999,579,.27771753E-1,.780174E-2,0
STARLINK-4149,2022-086BA,2026-07-03T23:06:53.773632,15.09733775,.00013534,53.2159,22.0490,97.6422,262.4725,0,U,53290,999,21874,.16022176E-2,.25938E-3,0
STARLINK-4166,2022-086BB,2026-07-04T06:00:02.999808,15.22089691,.0000467,53.1603,14.8899,92.1050,233.7730,0,U,53291,999,489,.32349383E-2,.75448E-3,0
STARLINK-4159,2022-086BC,2026-07-04T06:00:02.999808,15.30089627,.00009906,53.1592,19.4424,66.9472,299.8305,0,U,53292,999,570,.26731652E-1,.857843E-2,0
STARLINK-4148,2022-086BD,2026-07-04T06:00:02.999808,15.17740901,.00006295,53.1604,10.4514,93.8478,272.3580,0,U,53293,999,579,.53036916E-1,.1180245E-1,0
STARLINK-4146,2022-086BE,2026-07-04T06:00:02.999808,15.14031372,.00016612,53.1603,10.4199,92.8573,109.0303,0,U,53294,999,489,.22483104E-2,.41265E-3,0
STARLINK-4522,2022-097A,2026-07-04T02:34:24.104352,15.08849253,.00013776,53.1580,321.3007,85.8408,274.2741,0,U,53388,999,21642,.24219042E-3,.357E-4,0
STARLINK-4523,2022-097B,2026-07-04T02:23:50.441568,15.08826143,.0001192,53.1621,321.3388,111.0505,249.0615,0,U,53389,999,21624,.18815365E-3,.2707E-4,0
STARLINK-4517,2022-097C,2026-07-04T02:29:06.509184,15.08849859,.00010968,53.1609,321.3218,85.6749,274.4368,0,U,53390,999,21639,-.10090243E-3,-.1894E-4,0
STARLINK-4521,2022-097D,2026-07-04T02:18:31.310208,15.08830522,.00010167,53.1596,321.3562,86.8718,273.2390,0,U,53391,999,21624,.72102108E-4,.86E-5,0
STARLINK-4535,2022-097E,2026-07-04T02:07:55.097760,15.08833366,.00012483,53.1601,321.3878,87.2233,272.8902,0,U,53392,999,21624,.48445058E-4,.483E-5,0
STARLINK-4530,2022-097F,2026-07-04T02:13:13.263168,15.08831632,.0001109,53.1601,321.3703,94.4758,265.6360,0,U,53393,999,21624,.87638499E-4,.1107E-4,0
STARLINK-4544,2022-097G,2026-07-04T06:00:02.999808,15.13810536,.00016034,53.1604,310.1841,74.6438,42.0006,0,U,53394,999,580,.52833664E-2,.9754E-3,0
STARLINK-4534,2022-097H,2026-07-04T02:04:00.255648,15.08832203,.0001137,53.1605,321.4100,89.9044,270.2078,0,U,53395,999,21608,.2575495E-5,-.247E-5,0
STARLINK-4524,2022-097J,2026-07-04T01:41:24.876384,15.08850100,.00013865,53.1609,321.4693,92.5809,267.5341,0,U,53396,999,21608,-.16829541E-3,-.2966E-4,0
STARLINK-4515,2022-097K,2026-07-04T01:57:19.107360,15.08833861,.0001136,53.1605,321.4202,93.5643,266.5479,0,U,53397,999,21608,.62002278E-4,.699E-5,0
STARLINK-4512,2022-097L,2026-07-03T19:09:16.945056,15.08833132,.00007172,53.1596,322.6934,78.6021,281.5051,0,U,53398,999,21604,.1804645E-4,-.1E-7,0
STARLINK-4528,2022-097M,2026-07-04T01:46:43.355424,15.08832279,.00012401,53.1605,321.4532,92.9952,267.1182,0,U,53399,999,21608,.53648952E-4,.566E-5,0
STARLINK-4520,2022-097N,2026-07-04T02:50:18.496032,15.08836582,.00013009,53.1608,321.2567,81.5773,278.5365,0,U,53400,999,21609,.51198936E-4,.527E-5,0
STARLINK-4525,2022-097P,2026-07-03T19:14:35.520864,15.08839229,.00010164,53.1582,322.6761,75.9569,284.1536,0,U,53401,999,21604,.22051708E-3,.3223E-4,0
STARLINK-4499,2022-097Q,2026-07-04T02:45:00.067104,15.08834194,.00012211,53.1645,321.2744,91.1613,268.9519,0,U,53402,999,21609,.90588733E-4,.1154E-4,0
